OBJECT_NAME,OBJECT_ID,EPOCH,MEAN_MOTION,ECCENTRICITY,INCLINATION,RA_OF_ASC_NODE,ARG_OF_PERICENTER,MEAN_ANOMALY,EPHEMERIS_TYPE,CLASSIFICATION_TYPE,NORAD_CAT_ID,ELEMENT_SET_NO,REV_AT_EPOCH,BSTAR,MEAN_MOTION_DOT,MEAN_MOTION_DDOT
KUIPER-00622,2026-151S,2026-07-20T06:16:08.192352,15.36992197,.00069333,51.8741,155.9390,163.9431,196.1776,0,U,69779,999,279,.31334974E-3,.11148E-3,0
KUIPER-00623,2026-151T,2026-07-17T06:22:24.548160,15.37672053,.0006129,51.8777,170.3650,146.6000,213.5375,0,U,69780,999,233,.3498E-2,.133416E-2,0
KUIPER-00626,2026-151U,2026-07-20T06:38:33.692640,15.34653537,.00101132,51.8726,156.0382,180.8765,179.2204,0,U,69781,999,279,.43291082E-3,.14427E-3,0
KUIPER-00627,2026-151V,2026-07-20T06:00:04.000320,15.34307302,.00106306,51.8701,156.1947,188.1856,9.6571,0,U,69782,999,130,.10735969E-2,.36055E-3,0
KUIPER-00629,2026-151W,2026-07-20T06:00:04.000320,15.27827840,.00064183,51.8801,156.2114,174.6440,35.4332,0,U,69783,999,311,-.28730908E-2,-.78758E-3,0
KUIPER-00631,2026-151X,2026-07-20T06:00:04.000320,15.30140081,.00080732,51.8762,156.1849,175.0766,37.6569,0,U,69784,999,130,-.21812215E-1,-.604354E-2,0
KUIPER-00634,2026-151Y,2026-07-20T06:03:30.818592,15.37821242,.00038808,51.8780,155.8844,156.8106,203.3057,0,U,69785,999,279,.32223381E-3,.11792E-3,0
KUIPER-00639,2026-151Z,2026-07-20T06:33:59.957568,15.34735667,.00101134,51.8687,156.0153,183.9103,176.1805,0,U,69786,999,279,-.24484576E-2,-.83316E-3,0
KUIPER-00641,2026-151AA,2026-07-20T06:00:04.000320,15.34124465,.00119707,51.8684,156.2111,181.3014,7.6619,0,U,69787,999,342,.78014346E-3,.25919E-3,0
KUIPER-00644,2026-151AB,2026-07-20T06:00:04.000320,15.36543668,.00080127,51.8751,156.0554,176.0022,92.7260,0,U,69788,999,372,.93828511E-3,.3378E-3,0
KUIPER-00646,2026-151AC,2026-07-20T06:31:33.568320,15.35334772,.00095891,51.8711,156.0046,182.6981,177.3955,0,U,69789,999,279,-.45758991E-3,-.16321E-3,0
KUIPER-00647,2026-151AD,2026-07-20T06:39:38.835648,15.34665823,.00108449,51.8669,156.0374,183.9301,176.1601,0,U,69790,999,279,-.1808428E-3,-.656E-4,0
KUIPER-00662,2026-151AE,2026-07-20T06:23:50.290656,15.36562043,.00080679,51.8751,155.9744,176.5591,183.5453,0,U,69791,999,279,.30559256E-3,.10711E-3,0
LINK,2026-152A,2026-07-19T12:16:59.458656,15.68151137,.0024464,20.5926,294.1440,53.4514,306.8181,0,U,69792,999,253,.10209956E-2,.12377E-2,0
2026-152B,2026-152B,2026-07-19T12:40:29.834976,15.65080198,.0023069,20.5976,294.3251,52.9344,307.3209,0,U,69793,999,253,.3131409E-3,.33742E-3,0
ISS OBJECT YJ,1998-067YJ,2026-07-20T00:20:36.353760,15.50218592,.00077381,51.6315,137.5244,328.5191,31.5334,0,U,69794,999,274,.34927917E-3,.19699E-3,0
ISS OBJECT YK,1998-067YK,2026-07-20T04:50:09.163680,15.51059856,.00065344,51.6312,136.5254,336.2980,23.7708,0,U,69795,999,277,.59757263E-3,.35131E-3,0
ISS OBJECT YL,1998-067YL,2026-07-20T01:47:12.894720,15.50737363,.00086609,51.6316,137.1769,329.7937,30.2552,0,U,69796,999,274,.46414066E-3,.26856E-3,0
ISS OBJECT YM,1998-067YM,2026-07-18T03:22:42.429504,15.50677012,.00095277,51.6314,146.7645,314.1271,45.8934,0,U,69797,999,243,.50205193E-3,.29042E-3,0
ISS OBJECT YN,1998-067YN,2026-07-20T04:54:23.449248,15.50495349,.00091479,51.6316,136.5447,333.0851,26.9662,0,U,69798,999,277,.32771317E-3,.18645E-3,0
PROVES-ELECTRA,1998-067YP,2026-07-20T04:52:10.521984,15.50779013,.00096554,51.6314,136.5343,321.1675,38.8620,0,U,69799,999,276,.46689871E-3,.27069E-3,0
QIANFAN-201,2026-153A,2026-07-18T04:31:31.913184,14.22000035,.00069053,88.9921,358.7016,149.7286,210.4306,0,U,69800,999,197,-.84413937E+0,-.1723216E-1,0
QIANFAN-202,2026-153B,2026-07-20T06:14:25.118880,14.18844329,.00072664,88.9928,358.4719,159.5602,200.5880,0,U,69801,999,226,.76302836E-4,.173E-5,0
QIANFAN-203,2026-153C,2026-07-18T08:19:06.493152,14.17511061,.00126494,88.9920,358.6881,191.3457,168.7448,0,U,69802,999,199,-.99096051E+0,-.1871829E-1,0
QIANFAN-204,2026-153D,2026-07-20T06:05:52.039392,14.20114899,.00082394,88.9928,358.4710,162.8431,197.3039,0,U,69803,999,226,.50981941E-4,.123E-5,0
QIANFAN-205,2026-153E,2026-07-19T04:36:53.062848,14.18024271,.00037476,88.9920,358.5912,210.3039,149.7934,0,U,69804,999,211,-.10083704E+1,-.1918245E-1,0
QIANFAN-206,2026-153F,2026-07-19T00:58:35.091552,14.19679006,.00104474,88.9921,358.6058,189.8519,170.2467,0,U,69805,999,209,-.97476298E+0,-.1913818E-1,0
QIANFAN-207,2026-153G,2026-07-19T16:07:37.861536,14.19985325,.0009127,88.9920,358.5330,169.9330,190.2044,0,U,69806,999,218,-.10348672E+1,-.2033861E-1,0
QIANFAN-208,2026-153H,2026-07-18T21:30:05.571648,14.25462891,.0008667,88.9926,358.6211,171.9931,188.1402,0,U,69807,999,207,.61583086E-4,.16E-5,0
QIANFAN-209,2026-153J,2026-07-19T06:04:08.098464,14.18642799,.00067911,88.9921,358.5819,200.7636,159.3278,0,U,69808,999,212,-.99335516E+0,-.1912362E-1,0
