KUIPER-00622            
1 69779U 26151S   26201.26120593  .00011148  00000+0  31335-3 0  9994
2 69779  51.8741 155.9390 0006933 163.9431 196.1776 15.36992197  2793
KUIPER-00623            
1 69780U 26151T   26198.26556190  .00133416  00000+0  34980-2 0  9998
2 69780  51.8777 170.3650 0006129 146.6000 213.5375 15.37672053  2337
KUIPER-00626            
1 69781U 26151U   26201.27677885  .00014427  00000+0  43291-3 0  9996
2 69781  51.8726 156.0382 0010113 180.8765 179.2204 15.34653537  2793
KUIPER-00627            
1 69782U 26151V   26201.25004630  .00036055  00000+0  10736-2 0  9995
2 69782  51.8701 156.1947 0010630 188.1856   9.6571 15.34307302  1306
KUIPER-00629            
1 69783U 26151W   26201.25004630 -.00078758  00000+0 -28731-2 0  9998
2 69783  51.8801 156.2114 0006418 174.6440  35.4332 15.27827840  3112
KUIPER-00631            
1 69784U 26151X   26201.25004630 -.00604354  00000+0 -21812-1 0  9998
2 69784  51.8762 156.1849 0008073 175.0766  37.6569 15.30140081  1302
KUIPER-00634            
1 69785U 26151Y   26201.25244003  .00011792  00000+0  32223-3 0  9995
2 69785  51.8780 155.8844 0003880 156.8106 203.3057 15.37821242  2790
KUIPER-00639            
1 69786U 26151Z   26201.27361062 -.00083316  00000+0 -24485-2 0  9996
2 69786  51.8687 156.0153 0010113 183.9103 176.1805 15.34735667  2798
KUIPER-00641            
1 69787U 26151AA  26201.25004630  .00025919  00000+0  78014-3 0  9991
2 69787  51.8684 156.2111 0011970 181.3014   7.6619 15.34124465  3427
KUIPER-00644            
1 69788U 26151AB  26201.25004630  .00033780  00000+0  93829-3 0  9998
2 69788  51.8751 156.0554 0008012 176.0022  92.7260 15.36543668  3727
KUIPER-00646            
1 69789U 26151AC  26201.27191630 -.00016321  00000+0 -45759-3 0  9991
2 69789  51.8711 156.0046 0009589 182.6981 177.3955 15.35334772  2797
KUIPER-00647            
1 69790U 26151AD  26201.27753282 -.00006560  00000+0 -18084-3 0  9995
2 69790  51.8669 156.0374 0010844 183.9301 176.1601 15.34665823  2799
KUIPER-00662            
1 69791U 26151AE  26201.26655429  .00010711  00000+0  30559-3 0  9991
2 69791  51.8751 155.9744 0008067 176.5591 183.5453 15.36562043  2793
LINK                    
1 69792U 26152A   26200.51179929  .00123770  00000+0  10210-2 0  9997
2 69792  20.5926 294.1440 0024464  53.4514 306.8181 15.68151137  2530
2026-152B               
1 69793U 26152B   26200.52812309  .00033742  00000+0  31314-3 0  9993
2 69793  20.5976 294.3251 0023069  52.9344 307.3209 15.65080198  2535
ISS OBJECT YJ           
1 69794U 98067YJ  26201.01430965  .00019699  00000+0  34928-3 0  9996
2 69794  51.6315 137.5244 0007738 328.5191  31.5334 15.50218592  2748
ISS OBJECT YK           
1 69795U 98067YK  26201.20149495  .00035131  00000+0  59757-3 0  9999
2 69795  51.6312 136.5254 0006534 336.2980  23.7708 15.51059856  2779
ISS OBJECT YL           
1 69796U 98067YL  26201.07445480  .00026856  00000+0  46414-3 0  9998
2 69796  51.6316 137.1769 0008660 329.7937  30.2552 15.50737363  2745
ISS OBJECT YM           
1 69797U 98067YM  26199.14076886  .00029042  00000+0  50205-3 0  9996
2 69797  51.6314 146.7645 0009527 314.1271  45.8934 15.50677012  2431
ISS OBJECT YN           
1 69798U 98067YN  26201.20443807  .00018645  00000+0  32771-3 0  9994
2 69798  51.6316 136.5447 0009147 333.0851  26.9662 15.50495349  2779
PROVES-ELECTRA          
1 69799U 98067YP  26201.20289956  .00027069  00000+0  46690-3 0  9993
2 69799  51.6314 136.5343 0009655 321.1675  38.8620 15.50779013  2767
QIANFAN-201             
1 69800U 26153A   26199.18856381 -.01723216  00000+0 -84414+0 0  9990
2 69800  88.9921 358.7016 0006905 149.7286 210.4306 14.22000035  1979
QIANFAN-202             
1 69801U 26153B   26201.26001295  .00000173  00000+0  76303-4 0  9990
2 69801  88.9928 358.4719 0007266 159.5602 200.5880 14.18844329  2263
QIANFAN-203             
1 69802U 26153C   26199.34660293 -.01871829  00000+0 -99096+0 0  9991
2 69802  88.9920 358.6881 0012649 191.3457 168.7448 14.17511061  1998
QIANFAN-204             
1 69803U 26153D   26201.25407453  .00000123  00000+0  50982-4 0  9997
2 69803  88.9928 358.4710 0008239 162.8431 197.3039 14.20114899  2268
QIANFAN-205             
1 69804U 26153E   26200.19228082 -.01918245  00000+0 -10084+1 0  9990
2 69804  88.9920 358.5912 0003747 210.3039 149.7934 14.18024271  2118
QIANFAN-206             
1 69805U 26153F   26200.04068393 -.01913818  00000+0 -97476+0 0  9992
2 69805  88.9921 358.6058 0010447 189.8519 170.2467 14.19679006  2090
QIANFAN-207             
1 69806U 26153G   26200.67196599 -.02033861  00000+0 -10349+1 0  9999
2 69806  88.9920 358.5330 0009127 169.9330 190.2044 14.19985325  2182
QIANFAN-208             
1 69807U 26153H   26199.89589782  .00000160  00000+0  61583-4 0  9993
2 69807  88.9926 358.6211 0008667 171.9931 188.1402 14.25462891  2073
QIANFAN-209             
1 69808U 26153J   26200.25287151 -.01912362  00000+0 -99336+0 0  9993
2 69808  88.9921 358.5819 0006791 200.7636 159.3278 14.18642799  2127
